[{"OBJECT_NAME":"CELESTIS-02 & TAURUS R\/B","OBJECT_ID":"1998-007D","EPOCH":"2026-03-09T22:56:59.337312","MEAN_MOTION":14.22453237,"ECCENTRICITY":0.00634235,"INCLINATION":108.0072,"RA_OF_ASC_NODE":131.996,"ARG_OF_PERICENTER":301.5817,"MEAN_ANOMALY":134.6877,"EPHEMERIS_TYPE":0,"CLASSIFICATION_TYPE":"U","NORAD_CAT_ID":25160,"ELEMENT_SET_NO":999,"REV_AT_EPOCH":45640,"BSTAR":6.4821117e-5,"MEAN_MOTION_DOT":1.8e-7,"MEAN_MOTION_DDOT":0},{"OBJECT_NAME":"FENGYUN 1C DEB","OBJECT_ID":"1999-025DPH","EPOCH":"2026-03-09T12:35:07.442880","MEAN_MOTION":14.1109194,"ECCENTRICITY":0.00069728,"INCLINATION":98.7084,"RA_OF_ASC_NODE":79.9219,"ARG_OF_PERICENTER":15.3047,"MEAN_ANOMALY":136.3411,"EPHEMERIS_TYPE":0,"CLASSIFICATION_TYPE":"U","NORAD_CAT_ID":35201,"ELEMENT_SET_NO":999,"REV_AT_EPOCH":88243,"BSTAR":9.4912009e-5,"MEAN_MOTION_DOT":1.28e-6,"MEAN_MOTION_DDOT":0}]
